IRIDIUM 138             
1 43071U 17083B   26160.15355580  .00000181  00000+0  57428-4 0  9990
2 43071  86.3975 325.0694 0002397  88.3868 271.7603 14.34218083442983
IRIDIUM 116             
1 43072U 17083C   26159.91253622  .00000184  00000+0  58490-4 0  9990
2 43072  86.3958 325.4619 0001858  94.4925 265.6483 14.34217732442987
IRIDIUM 130             
1 43073U 17083D   26160.15989660  .00000083  00000+0  22679-4 0  9995
2 43073  86.3967 325.6330 0001944  88.4288 271.7131 14.34218159442961
IRIDIUM 151             
1 43074U 17083E   26159.99498994  .00000091  00000+0  25348-4 0  9996
2 43074  86.3961 325.4850 0002102  91.4862 268.6574 14.34217907442966
IRIDIUM 134             
1 43075U 17083F   26160.17258265  .00000003  00000+0 -61079-5 0  9990
2 43075  86.3956 325.4186 0001983  89.3330 270.8093 14.34217699442953
IRIDIUM 137             
1 43076U 17083G   26159.97596196  .00000029  00000+0  31627-5 0  9998
2 43076  86.3958 325.5935 0001908 103.6035 256.5374 14.34217425442992
IRIDIUM 141             
1 43077U 17083H   26159.96962016  .00000004  00000+0 -55623-5 0  9992
2 43077  86.3956 325.4273 0002103  91.0101 269.1335 14.34217386442990
IRIDIUM 153             
1 43078U 17083J   26160.13110491  .00000022  00000+0  70236-6 0  9993
2 43078  86.3956 293.8398 0002333  90.7987 269.3476 14.34217599444121
IRIDIUM 131             
1 43079U 17083K   26160.16624030 -.00000026  00000+0 -16432-4 0  9998
2 43079  86.3961 325.5305 0002090  91.8981 268.2454 14.34217289442954
IRIDIUM 144             
1 43249U 18030A   26160.06767800 -.00000035  00000+0 -19611-4 0  9994
2 43249  86.3949 293.7957 0001939  95.2768 264.8649 14.34217307428975
IRIDIUM 149             
1 43250U 18030B   26160.07402138  .00000039  00000+0  67568-5 0  9994
2 43250  86.3951 293.7600 0002245  93.2423 266.9030 14.34217742428994
IRIDIUM 157             
1 43251U 18030C   26160.09304902  .00000039  00000+0  67223-5 0  9995
2 43251  86.3953 293.8050 0002188  94.0600 266.0846 14.34217712428970
IRIDIUM 140             
1 43252U 18030D   26160.11207655  .00000027  00000+0  27414-5 0  9991
2 43252  86.3953 293.8097 0002146  92.5251 267.6191 14.34217655429035
IRIDIUM 145             
1 43253U 18030E   26160.09938971  .00000153  00000+0  47681-4 0  9998
2 43253  86.3952 293.7872 0001870  97.3008 262.8401 14.34218218428969
IRIDIUM 146             
1 43254U 18030F   26160.08036360  .00000029  00000+0  34338-5 0  9997
2 43254  86.3953 293.8073 0002097  95.7321 264.4114 14.34217624428977
IRIDIUM 148             
1 43255U 18030G   26160.11841875  .00000002  00000+0 -65209-5 0  9990
2 43255  86.3951 293.8347 0002075  97.2494 262.8937 14.34217427429016
IRIDIUM 142             
1 43256U 18030H   26160.08670552  .00000051  00000+0  11227-4 0  9992
2 43256  86.3951 293.7371 0002048  96.4074 263.7355 14.34217851428977
IRIDIUM 150             
1 43257U 18030J   26160.12476166  .00000045  00000+0  89866-5 0  9991
2 43257  86.3956 293.8373 0002139  92.2563 267.8878 14.34217834429005
IRIDIUM 143             
1 43258U 18030K   26160.10573397 -.00000228  00000+0 -88462-4 0  9999
2 43258  86.3956 293.9375 0002073  94.7716 265.3716 14.34216802428932
IRIDIUM 161             
1 43478U 18047C   26160.05728854  .00000265  00000+0  72878-4 0  9998
2 43478  86.4481  91.8700 0002547  87.8782 272.2710 14.43278256423969
IRIDIUM 152             
1 43479U 18047D   26160.07845228  .00000027  00000+0  25485-5 0  9995
2 43479  86.3957  91.7223 0002374  84.2045 275.9422 14.34217792421323
IRIDIUM 147             
1 43480U 18047E   26160.08479434  .00000071  00000+0  18130-4 0  9997
2 43480  86.3959  91.7247 0002141  84.9376 275.2064 14.34217775421325
IRIDIUM 110             
1 43481U 18047F   26160.09113813  .00000005  00000+0 -53457-5 0  9995
2 43481  86.3961  91.8138 0002475  86.1094 274.0384 14.34217478421311
IRIDIUM 162             
1 43482U 18047G   26160.05099152  .00000287  00000+0  79408-4 0  9995
2 43482  86.4478  91.7639 0002340  83.2691 276.8776 14.43276952423952
IRIDIUM 160             
1 43569U 18061A   26160.17651008  .00000012  00000+0 -28088-5 0  9990
2 43569  86.3967  60.1467 0002267  86.4544 273.6911 14.34217729412220
IRIDIUM 166             
1 43570U 18061B   26159.78326931  .00000004  00000+0 -57454-5 0  9991
2 43570  86.3966  60.2614 0002008  84.8251 275.3173 14.34217493412199
IRIDIUM 158             
1 43571U 18061C   26160.17016726  .00000099  00000+0  28467-4 0  9999
2 43571  86.3966  60.1099 0002260  82.6051 277.5401 14.34217664412211
IRIDIUM 165             
1 43572U 18061D   26160.19553376  .00000161  00000+0  50604-4 0  9997
2 43572  86.3968  60.1453 0002081  85.8891 274.2542 14.34216424412242
IRIDIUM 155             
1 43573U 18061E   26160.08771359  .00000025  00000+0  18367-5 0  9999
2 43573  86.3963  60.0600 0002169  82.1479 277.9963 14.34217786412193
IRIDIUM 154             
1 43574U 18061F   26159.78961147  .00000062  00000+0  15213-4 0  9998
2 43574  86.3969  60.3179 0002069  87.1433 272.9999 14.34217888412207
IRIDIUM 163             
1 43575U 18061G   26160.18918485  .00000192  00000+0  61337-4 0  9994
2 43575  86.3965  60.0664 0002314  83.2618 276.8841 14.34215569412231
