OBJECT_NAME,OBJECT_ID,EPOCH,MEAN_MOTION,ECCENTRICITY,INCLINATION,RA_OF_ASC_NODE,ARG_OF_PERICENTER,MEAN_ANOMALY,EPHEMERIS_TYPE,CLASSIFICATION_TYPE,NORAD_CAT_ID,ELEMENT_SET_NO,REV_AT_EPOCH,BSTAR,MEAN_MOTION_DOT,MEAN_MOTION_DDOT
IRIDIUM 138,2017-083B,2026-06-09T03:41:07.221120,14.34218083,.0002397,86.3975,325.0694,88.3868,271.7603,0,U,43071,999,44298,.57428E-4,.181E-5,0
IRIDIUM 116,2017-083C,2026-06-08T21:54:03.129408,14.34217732,.0001858,86.3958,325.4619,94.4925,265.6483,0,U,43072,999,44298,.5849E-4,.184E-5,0
IRIDIUM 130,2017-083D,2026-06-09T03:50:15.066240,14.34218159,.0001944,86.3967,325.6330,88.4288,271.7131,0,U,43073,999,44296,.22679E-4,.83E-6,0
IRIDIUM 151,2017-083E,2026-06-08T23:52:47.130816,14.34217907,.0002102,86.3961,325.4850,91.4862,268.6574,0,U,43074,999,44296,.25348E-4,.91E-6,0
IRIDIUM 134,2017-083F,2026-06-09T04:08:31.140960,14.34217699,.0001983,86.3956,325.4186,89.3330,270.8093,0,U,43075,999,44295,-.61079E-5,.3E-7,0
IRIDIUM 137,2017-083G,2026-06-08T23:25:23.113344,14.34217425,.0001908,86.3958,325.5935,103.6035,256.5374,0,U,43076,999,44299,.31627E-5,.29E-6,0
IRIDIUM 141,2017-083H,2026-06-08T23:16:15.181824,14.34217386,.0002103,86.3956,325.4273,91.0101,269.1335,0,U,43077,999,44299,-.55623E-5,.4E-7,0
IRIDIUM 153,2017-083J,2026-06-09T03:08:47.464224,14.34217599,.0002333,86.3956,293.8398,90.7987,269.3476,0,U,43078,999,44412,.70236E-6,.22E-6,0
IRIDIUM 131,2017-083K,2026-06-09T03:59:23.161920,14.34217289,.000209,86.3961,325.5305,91.8981,268.2454,0,U,43079,999,44295,-.16432E-4,-.26E-6,0
IRIDIUM 144,2018-030A,2026-06-09T01:37:27.379200,14.34217307,.0001939,86.3949,293.7957,95.2768,264.8649,0,U,43249,999,42897,-.19611E-4,-.35E-6,0
IRIDIUM 149,2018-030B,2026-06-09T01:46:35.447232,14.34217742,.0002245,86.3951,293.7600,93.2423,266.9030,0,U,43250,999,42899,.67568E-5,.39E-6,0
IRIDIUM 157,2018-030C,2026-06-09T02:13:59.435328,14.34217712,.0002188,86.3953,293.8050,94.0600,266.0846,0,U,43251,999,42897,.67223E-5,.39E-6,0
IRIDIUM 140,2018-030D,2026-06-09T02:41:23.413920,14.34217655,.0002146,86.3953,293.8097,92.5251,267.6191,0,U,43252,999,42903,.27414E-5,.27E-6,0
IRIDIUM 145,2018-030E,2026-06-09T02:23:07.270944,14.34218218,.000187,86.3952,293.7872,97.3008,262.8401,0,U,43253,999,42896,.47681E-4,.153E-5,0
IRIDIUM 146,2018-030F,2026-06-09T01:55:43.415040,14.34217624,.0002097,86.3953,293.8073,95.7321,264.4114,0,U,43254,999,42897,.34338E-5,.29E-6,0
IRIDIUM 148,2018-030G,2026-06-09T02:50:31.380000,14.34217427,.0002075,86.3951,293.8347,97.2494,262.8937,0,U,43255,999,42901,-.65209E-5,.2E-7,0
IRIDIUM 142,2018-030H,2026-06-09T02:04:51.356928,14.34217851,.0002048,86.3951,293.7371,96.4074,263.7355,0,U,43256,999,42897,.11227E-4,.51E-6,0
IRIDIUM 150,2018-030J,2026-06-09T02:59:39.407424,14.34217834,.0002139,86.3956,293.8373,92.2563,267.8878,0,U,43257,999,42900,.89866E-5,.45E-6,0
IRIDIUM 143,2018-030K,2026-06-09T02:32:15.415008,14.34216802,.0002073,86.3956,293.9375,94.7716,265.3716,0,U,43258,999,42893,-.88462E-4,-.228E-5,0
IRIDIUM 161,2018-047C,2026-06-09T01:22:29.729856,14.43278256,.0002547,86.4481,91.8700,87.8782,272.2710,0,U,43478,999,42396,.72878E-4,.265E-5,0
IRIDIUM 152,2018-047D,2026-06-09T01:52:58.276992,14.34217792,.0002374,86.3957,91.7223,84.2045,275.9422,0,U,43479,999,42132,.25485E-5,.27E-6,0
IRIDIUM 147,2018-047E,2026-06-09T02:02:06.230976,14.34217775,.0002141,86.3959,91.7247,84.9376,275.2064,0,U,43480,999,42132,.1813E-4,.71E-6,0
IRIDIUM 110,2018-047F,2026-06-09T02:11:14.334432,14.34217478,.0002475,86.3961,91.8138,86.1094,274.0384,0,U,43481,999,42131,-.53457E-5,.5E-7,0
IRIDIUM 162,2018-047G,2026-06-09T01:13:25.667328,14.43276952,.000234,86.4478,91.7639,83.2691,276.8776,0,U,43482,999,42395,.79408E-4,.287E-5,0
IRIDIUM 160,2018-061A,2026-06-09T04:14:10.470912,14.34217729,.0002267,86.3967,60.1467,86.4544,273.6911,0,U,43569,999,41222,-.28088E-5,.12E-6,0
IRIDIUM 166,2018-061B,2026-06-08T18:47:54.468384,14.34217493,.0002008,86.3966,60.2614,84.8251,275.3173,0,U,43570,999,41219,-.57454E-5,.4E-7,0
IRIDIUM 158,2018-061C,2026-06-09T04:05:02.451264,14.34217664,.000226,86.3966,60.1099,82.6051,277.5401,0,U,43571,999,41221,.28467E-4,.99E-6,0
IRIDIUM 165,2018-061D,2026-06-09T04:41:34.116864,14.34216424,.0002081,86.3968,60.1453,85.8891,274.2542,0,U,43572,999,41224,.50604E-4,.161E-5,0
IRIDIUM 155,2018-061E,2026-06-09T02:06:18.454176,14.34217786,.0002169,86.3963,60.0600,82.1479,277.9963,0,U,43573,999,41219,.18367E-5,.25E-6,0
IRIDIUM 154,2018-061F,2026-06-08T18:57:02.431008,14.34217888,.0002069,86.3969,60.3179,87.1433,272.9999,0,U,43574,999,41220,.15213E-4,.62E-6,0
IRIDIUM 163,2018-061G,2026-06-09T04:32:25.571040,14.34215569,.0002314,86.3965,60.0664,83.2618,276.8841,0,U,43575,999,41223,.61337E-4,.192E-5,0
